ONEWEB-0683             
1 56719U 23068K   24166.62333983 -.00000021  00000+0 -88869-4 0  9990
2 56719  87.9044  44.9605 0001537  75.6904 284.4396 13.15548532 53109
ONEWEB-0684             
1 56720U 23068L   24166.70732703 -.00000037  00000+0 -13156-3 0  9997
2 56720  87.9044  45.0202 0003287  68.5584 291.5897 13.15548475 52947
ONEWEB-0686             
1 56721U 23068M   24166.93698149  .00000038  00000+0  66129-4 0  9996
2 56721  87.9101  14.5999 0001858  80.4022 279.7318 13.16593317 55369
ONEWEB-0694             
1 56722U 23068N   24166.82062066  .00000003  00000+0 -25522-4 0  9993
2 56722  87.9100  14.5421 0001349  80.3207 279.8076 13.16593219 55406
ONEWEB-0696             
1 56723U 23068P   24166.89271162  .00000115  00000+0  27154-3 0  9995
2 56723  87.9046  44.9574 0002086  85.2297 274.9072 13.15549695 53086
ONEWEB-0703             
1 56724U 23068Q   24166.90222431  .00000031  00000+0  47578-4 0  9993
2 56724  87.9045  44.9763 0002975  95.7706 264.3764 13.15548577 52970
ONEWEB-0721             
1 56725U 23068R   24166.89283209  .00002168  00000+0  25019-3 0  9990
2 56725  86.6770 337.0435 0008239 282.2168  77.8133 14.85150024 58177
